FOSSASAT-2E20 (TAT-O)   
1 63003U 25009DN  26068.70855016  .00016337  00000+0  61863-3 0  9998
2 63003  97.3231 146.2859 0002189 347.5575  12.5610 15.26991080121314
STARLINK-32937          
1 63148U 25043S   26068.23576516  .00037573  00000+0  13678-2 0  9994
2 63148  43.0038  18.7338 0001382 274.4131  85.6562 15.27583177 57299
